FLOCK 4BE-26            
1 60484U 24149S   25288.69070855  .00020064  00000+0  66868-3 0  9995
2 60484  97.3973   6.1440 0004887  67.5281 292.6478 15.31122260 64745
TOMORROW-S2             
1 60485U 24149T   25288.94772126  .00009505  00000+0  35321-3 0  9991
2 60485  97.4047   6.0389 0004362  68.1093 292.0609 15.27744106 64739
FLOCK 4BE-36            
1 60486U 24149U   25288.93754723  .00019321  00000+0  61593-3 0  9991
2 60486  97.3977   6.9146 0005328  69.9229 290.2586 15.32557682 64814
FLOCK 4BE-25            
1 60487U 24149V   25288.17368129  .00018057  00000+0  61577-3 0  9996
2 60487  97.4030   5.7957 0003834  70.2032 289.9622 15.30405349 64658
FLOCK 4BE-31            
1 60488U 24149W   25288.89934614  .00021465  00000+0  67449-3 0  9995
2 60488  97.4029   7.2580 0004204  72.5151 287.6550 15.33003565 64815
FLOCK 4BE-20            
1 60489U 24149X   25288.49796582  .00018991  00000+0  65294-3 0  9998
2 60489  97.3944   5.5318 0005247  71.3666 288.8144 15.30122307 64698
FLOCK 4BE-23            
1 60490U 24149Y   25288.89015152  .00016679  00000+0  57978-3 0  9992
2 60490  97.4019   6.1673 0005072  74.0834 286.0965 15.29792173 64747
FLOCK 4BE-15            
1 60491U 24149Z   25288.65746546  .00018903  00000+0  59022-3 0  9999
2 60491  97.3957   6.2655 0004818  94.8690 265.3102 15.33229128 64750
FLOCK 4BE-17            
1 60492U 24149AA  25288.21476404  .00019420  00000+0  65377-3 0  9990
2 60492  97.4016   5.8766 0004303  74.1849 285.9867 15.30805705 64666
NUSAT-50 (NANCY ROMAN)  
1 60493U 24149AB  25288.94238038  .00015116  00000+0  52841-3 0  9990
2 60493  97.4002   6.6279 0005312  72.0053 288.1766 15.29630919 64782
FLOCK 4BE-22            
1 60494U 24149AC  25288.94905859  .00021874  00000+0  71957-3 0  9990
2 60494  97.3975   6.5619 0005966  76.1896 284.0009 15.31519039 64791
FLOCK 4BE-34            
1 60495U 24149AD  25288.69179508  .00017298  00000+0  55623-3 0  9994
2 60495  97.4015   6.8601 0005565  85.4688 274.7190 15.32302420 64779
TYCHE                   
1 60496U 24149AE  25288.92404814  .00007164  00000+0  28995-3 0  9995
2 60496  97.4004   4.6894 0005713  81.1191 279.0693 15.24983571 64651
FLOCK 4BE-32            
1 60497U 24149AF  25288.91186816  .00020325  00000+0  65889-3 0  9991
2 60497  97.3957   6.6824 0005437  75.5661 284.6183 15.32009580 64806
NUSAT-48 (HENRIETTA LE*)
1 60498U 24149AG  25288.66560858  .00016343  00000+0  54702-3 0  9993
2 60498  97.3971   6.2062 0005896  76.7509 283.4389 15.31021761 64748
FLOCK 4BE-30            
1 60499U 24149AH  25288.91754797  .00021019  00000+0  68115-3 0  9998
2 60499  97.4035   7.1066 0004811  77.3010 282.8769 15.32017029 64181
NUSAT-49 (KLARA DAN VO*)
1 60500U 24149AJ  25288.94470223  .00015227  00000+0  51704-3 0  9993
2 60500  97.3999   6.6010 0005482  73.2552 286.9290 15.30573552 64782
FLOCK 4BE-11            
1 60501U 24149AK  25288.94609245  .00021666  00000+0  69526-3 0  9997
2 60501  97.3946   6.7595 0005674  76.9031 283.2844 15.32321724 64812
FLOCK 4BE-33            
1 60502U 24149AL  25288.94537788  .00017015  00000+0  58022-3 0  9992
2 60502  97.3959   6.2363 0005900  85.8535 274.3381 15.30408336 64770
FLOCK 4BE-10            
1 60503U 24149AM  25288.93352812  .00068188  00000+0  21789-2 0  9991
2 60503  97.4008   6.7015 0004118  69.8871 290.2814 15.32189996 64780
YAM-7                   
1 60504U 24149AN  25288.94057387  .00009712  00000+0  36610-3 0  9990
2 60504  97.4023   5.6342 0005179  86.5285 273.6546 15.27263423 64714
FLOCK 4BE-24            
1 60505U 24149AP  25288.93600836  .00020387  00000+0  64872-3 0  9995
2 60505  97.3954   6.9522 0005663  86.6871 273.5019 15.32603619 64828
LUR-1                   
1 60506U 24149AQ  25288.67064530  .00009620  00000+0  37974-3 0  9992
2 60506  97.3995   4.6614 0005895  92.4869 267.7044 15.25727814 64638
TANAGER-4001            
1 60507U 24149AR  25288.48430796  .00018855  00000+0  41831-3 0  9990
2 60507  97.3947  14.6689 0010186 243.5974 116.4228 15.43722818 65289
EAGLEEYE                
1 60508U 24149AS  25288.49666756  .00037594  00000+0  90325-3 0  9992
2 60508  97.3985   9.1816 0004365  79.1842 280.9895 15.41234109 64928
FLOCK 4BE-29            
1 60509U 24149AT  25288.79479104  .00021160  00000+0  65673-3 0  9995
2 60509  97.4035   7.5754 0004429  95.5472 264.6275 15.33399512 64822
2024-149AU              
1 60510U 24149AU  25288.93543747  .00016332  00000+0  53277-3 0  9990
2 60510  97.3965   6.8717 0005435  88.3050 271.8814 15.31853876 64810
FLOCK 4BE-2             
1 60511U 24149AV  25288.67514823  .00021492  00000+0  65141-3 0  9991
2 60511  97.4042   7.7690 0004517  92.3876 267.7884 15.34150713 64824
FLOCK 4BE-13            
1 60512U 24149AW  25288.20463460  .00018805  00000+0  59945-3 0  9990
2 60512  97.3950   6.3685 0005732  74.5975 285.5900 15.32562976 64725
FLOCK 4BE-27            
1 60513U 24149AX  25288.89128846  .00011835  00000+0  42572-3 0  9996
2 60513  97.4053   6.2913 0005743  96.1258 264.0637 15.28750204 64749
FLOCK 4BE-9             
1 60514U 24149AY  25288.69217210  .00019440  00000+0  63521-3 0  9996
2 60514  97.4025   6.8687 0004857 101.4122 258.7666 15.31766802 64778
FLOCK 4BE-8             
1 60515U 24149AZ  25288.66645687  .00046124  00000+0  13969-2 0  9996
2 60515  97.3968   6.6107 0003434  69.5162 290.6449 15.34013331 64776
FLOCK 4BE-6             
1 60516U 24149BA  25288.17187601  .00018559  00000+0  62373-3 0  9995
2 60516  97.4018   6.0718 0005457 101.9225 258.2629 15.30865013 64671
FLOCK 4BE-14            
1 60517U 24149BB  25288.19937753  .00019885  00000+0  64740-3 0  9992
2 60517  97.3943   6.1156 0006660  97.5228 262.6770 15.31869306 64705
FLOCK 4BE-1             
1 60518U 24149BC  25288.79355228  .00021145  00000+0  67220-3 0  9998
2 60518  97.4009   7.3035 0005758  93.2818 266.9082 15.32626716 64816
FLOCK 4BE-28            
1 60519U 24149BD  25288.90268707  .00020825  00000+0  63736-3 0  9999
2 60519  97.3977   7.5683 0006274  93.1752 267.0209 15.33839009 64850
IPERDRONE.0             
1 60520U 24149BE  25288.69421924  .00035011  00000+0  83604-3 0  9998
2 60520  97.3998   9.7771 0004860  69.1547 291.0220 15.41432658 64972
2024-149BF              
1 60521U 24149BF  25288.91484392  .00039822  00000+0  90198-3 0  9992
2 60521  97.4014  10.4918 0004966  81.4736 278.7074 15.42993474 65035
CONNECTA IOT-2          
1 60522U 24149BG  25288.18033944  .00007601  00000+0  32858-3 0  9994
2 60522  97.4067   5.0840 0008578 106.1030 254.1151 15.22718023 64602
PTD-R (TYVAK-0127)      
1 60523U 24149BH  25288.69946621  .00037775  00000+0  72412-3 0  9991
2 60523  97.3980  11.8926 0005027  83.8456 276.3367 15.47909661 65125
CONNECTA IOT-4          
1 60524U 24149BJ  25288.68255093  .00020032  00000+0  64204-3 0  9995
2 60524  97.4016   6.6410 0007332  89.9893 270.2189 15.32366155 64763
ORESAT0.5               
1 60525U 24149BK  25288.67312428  .00019492  00000+0  58468-3 0  9994
2 60525  97.3946   7.5528 0007778  83.1225 277.0903 15.34479233 64846
DEIMOS                  
1 60526U 24149BL  25288.67062337  .00019415  00000+0  59021-3 0  9997
2 60526  97.4005   7.7324 0007774  88.7275 271.4858 15.34056963 64839
CUAVA-2                 
1 60527U 24149BM  25288.79514946  .00014998  00000+0  53502-3 0  9998
2 60527  97.3966   5.8265 0009042  87.6919 272.5357 15.28943229 64739
ERNST                   
1 60528U 24149BN  25288.91486313  .00016853  00000+0  56086-3 0  9991
2 60528  97.4032   6.9203 0008308  93.5687 266.6504 15.31184590 64797
GAINDESAT-1A            
1 60529U 24149BP  25288.90222915  .00097299  00000+0  13204-2 0  9994
2 60529  97.3992  13.8622 0003007  72.1412 288.0171 15.57305110 65255
TORO                    
1 60530U 24149BQ  25288.67533084  .00003539  00000+0  32859-3 0  9994
2 60530  97.7051   2.7797 0001565  94.7064 265.4335 14.95032309 63401
HYPSO-2                 
1 60531U 24149BR  25288.91840946  .00004643  00000+0  41061-3 0  9992
2 60531  97.7077   3.7253 0002031  84.3954 275.7499 14.96790213 63489
LEMU NGE                
1 60532U 24149BS  25288.48505758  .00004398  00000+0  40422-3 0  9991
2 60532  97.7090   3.0431 0002687 104.7362 255.4157 14.95302355 63394
LEMUR-2-STELLA          
1 60533U 24149BT  25288.93203071  .00014257  00000+0  10133-2 0  9995
2 60533  97.6953   6.2690 0001963 121.4228 238.7191 15.04793795 63673
SATELIOT_2              
1 60534U 24149BU  25288.92015177  .00003235  00000+0  30117-3 0  9992
2 60534  97.7089   3.2158 0001385 108.6806 251.4565 14.94984304 63457
NIGHTJAR                
1 60535U 24149BV  25288.93198237  .00005105  00000+0  45010-3 0  9999
2 60535  97.7097   4.0544 0001019 130.4274 229.7036 14.96867075106301
LEMUR-2-MARHISYAM       
1 60536U 24149BW  25288.90968430  .00014059  00000+0  10058-2 0  9998
2 60536  97.7082   6.4035 0002160 209.4536 150.6568 15.04550686 63663
SATELIOT_4              
1 60537U 24149BX  25288.91615198  .00002931  00000+0  27097-3 0  9998
2 60537  97.7002   2.8995 0003250 115.4214 244.7344 14.95329244 63458
PICO-02A021             
1 60538U 24149BY  25288.50154380  .00008485  00000+0  68864-3 0  9992
2 60538  97.7101   4.6407 0003747 105.9709 254.1927 14.99881637 63018
ICEYE-X43               
1 60539U 24149BZ  25288.92369828  .00004775  00000+0  41036-3 0  9994
2 60539  97.7037   4.1441 0003536 148.0888 212.0549 14.97897139 63523
HAWK-10A                
1 60540U 24149CA  25288.16910936  .00003321  00000+0  30583-3 0  9995
2 60540  97.7149   3.1424 0004196 149.9195 210.2268 14.95387939 63352
UMBRA-09                
1 60541U 24149CB  25288.20197797  .00018650  00000+0  11986-2 0  9999
2 60541  97.7161   7.6965 0001115 137.4844 222.6471 15.08475176 63660
QPS-SAR-8 (AMATERU-IV)  
1 60542U 24149CC  25288.92681883  .00007674  00000+0  61130-3 0  9994
2 60542  97.7030   5.3949 0006943 202.2758 157.8165 15.00623061 63593
